{
    "links": {
        "self": "http://www.neowsapp.com/rest/v1/neo/3092300?api_key=iIulBulltgU6a56xZRHN4H3l9WmuAYTsLGpBGhQ2"
    },
    "id": "3092300",
    "neo_reference_id": "3092300",
    "name": "(2001 KO41)",
    "designation": "2001 KO41",
    "nasa_jpl_url": "http://ssd.jpl.nasa.gov/sbdb.cgi?sstr=3092300",
    "absolute_magnitude_h": 20.7,
    "estimated_diameter": {
        "kilometers": {
            "estimated_diameter_min": 0.1925550782,
            "estimated_diameter_max": 0.4305662442
        },
        "meters": {
            "estimated_diameter_min": 192.5550781879,
            "estimated_diameter_max": 430.566244241
        },
        "miles": {
            "estimated_diameter_min": 0.1196481415,
            "estimated_diameter_max": 0.2675413778
        },
        "feet": {
            "estimated_diameter_min": 631.7424027221,
            "estimated_diameter_max": 1412.6189567557
        }
    },
    "is_potentially_hazardous_asteroid": false,
    "close_approach_data": [
        {
            "close_approach_date": "2001-04-03",
            "close_approach_date_full": "2001-Apr-03 03:32",
            "epoch_date_close_approach": 986268720000,
            "relative_velocity": {
                "kilometers_per_second": "4.3968849034",
                "kilometers_per_hour": "15828.7856522909",
                "miles_per_hour": "9835.3918404471"
            },
            "miss_distance": {
                "astronomical": "0.1764274914",
                "lunar": "68.6302941546",
                "kilometers": "26393176.922883318",
                "miles": "16399959.6636450684"
            },
            "orbiting_body": "Earth"
        }
    ],
    "orbital_data": {
        "orbit_id": "14",
        "orbit_determination_date": "2017-04-06 09:16:21",
        "first_observation_date": "2001-05-24",
        "last_observation_date": "2001-06-18",
        "data_arc_in_days": 25,
        "observations_used": 55,
        "orbit_uncertainty": "7",
        "minimum_orbit_intersection": ".152872",
        "jupiter_tisserand_invariant": "3.689",
        "epoch_osculation": "2459000.5",
        "eccentricity": ".438505800549273",
        "semi_major_axis": "2.022705254808085",
        "inclination": "5.04610759384971",
        "ascending_node_longitude": "241.8734681956227",
        "orbital_period": "1050.744997277913",
        "perihelion_distance": "1.135737267773244",
        "perihelion_argument": "307.3647846608496",
        "aphelion_distance": "2.909673241842926",
        "perihelion_time": "2459349.108727893437",
        "mean_anomaly": "240.5617515507962",
        "mean_motion": ".3426140509187531",
        "equinox": "J2000",
        "orbit_class": {
            "orbit_class_type": "AMO",
            "orbit_class_description": "Near-Earth asteroid orbits similar to that of 1221 Amor",
            "orbit_class_range": "1.017 AU < q (perihelion) < 1.3 AU"
        }
    },
    "is_sentry_object": false
}